ONEWEB-0607             
1 54671U 22166AF  25172.65936076  .00000092  00000+0  19028-3 0  9992
2 54671  87.9263 315.8766 0001694  99.1925 260.9401 13.21827604123913
ONEWEB-0608             
1 54672U 22166AG  25173.11986495 -.00000021  00000+0 -81574-4 0  9995
2 54672  87.9247 315.7755 0001302  97.7283 262.3999 13.21825657124443
ONEWEB-0610             
1 54673U 22166AH  25172.64674225  .00000125  00000+0  27044-3 0  9992
2 54673  87.9266 315.8989 0001432  93.1490 266.9808 13.21827796123825
ONEWEB-0611             
1 54674U 22166AJ  25173.09462177 -.00000029  00000+0 -10223-3 0  9990
2 54674  87.9263 315.8067 0002129  99.7432 260.3942 13.21826637124340
ONEWEB-0612             
1 54675U 22166AK  25172.80446135 -.00000035  00000+0 -11650-3 0  9997
2 54675  87.9262 315.8417 0001617  97.9710 262.1607 13.21826519123828
ONEWEB-0615             
1 54676U 22166AL  25173.08831791 -.00000005  00000+0 -44406-4 0  9998
2 54676  87.9263 315.8118 0001886  98.8886 261.2461 13.21824361124349
ONEWEB-0655             
1 54677U 22166AM  25172.83443000 -.00000045  00000+0 -14059-3 0  9997
2 54677  87.9263 315.8665 0001736 108.9947 251.1375 13.21824143123835
ONEWEB-0659             
1 54678U 22166AN  25173.15455280  .00000034  00000+0  51370-4 0  9991
2 54678  87.9260 315.8042 0001937  94.4982 265.6373 13.21827086124437
