<?xml version="1.0" encoding="UTF-8"?>
<ndm xmlns:xsi="http://www.w3.org/2001/XMLSchema-instance" xsi:noNamespaceSchemaLocation="https://sanaregistry.org/r/ndmxml_unqualified/ndmxml-2.0.0-master-2.0.xsd">
<omm id="CCSDS_OMM_VERS" version="2.0">
<header><CREATION_DATE/><ORIGINATOR/></header><body><segment><metadata><OBJECT_NAME>ONEWEB-0607</OBJECT_NAME><OBJECT_ID>2022-166AF</OBJECT_ID><CENTER_NAME>EARTH</CENTER_NAME><REF_FRAME>TEME</REF_FRAME><TIME_SYSTEM>UTC</TIME_SYSTEM><MEAN_ELEMENT_THEORY>SGP4</MEAN_ELEMENT_THEORY></metadata><data><meanElements><EPOCH>2025-06-21T15:49:28.769664</EPOCH><MEAN_MOTION>13.21827604</MEAN_MOTION><ECCENTRICITY>.0001694</ECCENTRICITY><INCLINATION>87.9263</INCLINATION><RA_OF_ASC_NODE>315.8766</RA_OF_ASC_NODE><ARG_OF_PERICENTER>99.1925</ARG_OF_PERICENTER><MEAN_ANOMALY>260.9401</MEAN_ANOMALY></meanElements><tleParameters><EPHEMERIS_TYPE>0</EPHEMERIS_TYPE><CLASSIFICATION_TYPE>U</CLASSIFICATION_TYPE><NORAD_CAT_ID>54671</NORAD_CAT_ID><ELEMENT_SET_NO>999</ELEMENT_SET_NO><REV_AT_EPOCH>12391</REV_AT_EPOCH><BSTAR>.19028E-3</BSTAR><MEAN_MOTION_DOT>.92E-6</MEAN_MOTION_DOT><MEAN_MOTION_DDOT>0</MEAN_MOTION_DDOT></tleParameters></data></segment></body></omm>
<omm id="CCSDS_OMM_VERS" version="2.0">
<header><CREATION_DATE/><ORIGINATOR/></header><body><segment><metadata><OBJECT_NAME>ONEWEB-0608</OBJECT_NAME><OBJECT_ID>2022-166AG</OBJECT_ID><CENTER_NAME>EARTH</CENTER_NAME><REF_FRAME>TEME</REF_FRAME><TIME_SYSTEM>UTC</TIME_SYSTEM><MEAN_ELEMENT_THEORY>SGP4</MEAN_ELEMENT_THEORY></metadata><data><meanElements><EPOCH>2025-06-22T02:52:36.331680</EPOCH><MEAN_MOTION>13.21825657</MEAN_MOTION><ECCENTRICITY>.0001302</ECCENTRICITY><INCLINATION>87.9247</INCLINATION><RA_OF_ASC_NODE>315.7755</RA_OF_ASC_NODE><ARG_OF_PERICENTER>97.7283</ARG_OF_PERICENTER><MEAN_ANOMALY>262.3999</MEAN_ANOMALY></meanElements><tleParameters><EPHEMERIS_TYPE>0</EPHEMERIS_TYPE><CLASSIFICATION_TYPE>U</CLASSIFICATION_TYPE><NORAD_CAT_ID>54672</NORAD_CAT_ID><ELEMENT_SET_NO>999</ELEMENT_SET_NO><REV_AT_EPOCH>12444</REV_AT_EPOCH><BSTAR>-.81574E-4</BSTAR><MEAN_MOTION_DOT>-.21E-6</MEAN_MOTION_DOT><MEAN_MOTION_DDOT>0</MEAN_MOTION_DDOT></tleParameters></data></segment></body></omm>
<omm id="CCSDS_OMM_VERS" version="2.0">
<header><CREATION_DATE/><ORIGINATOR/></header><body><segment><metadata><OBJECT_NAME>ONEWEB-0610</OBJECT_NAME><OBJECT_ID>2022-166AH</OBJECT_ID><CENTER_NAME>EARTH</CENTER_NAME><REF_FRAME>TEME</REF_FRAME><TIME_SYSTEM>UTC</TIME_SYSTEM><MEAN_ELEMENT_THEORY>SGP4</MEAN_ELEMENT_THEORY></metadata><data><meanElements><EPOCH>2025-06-21T15:31:18.530400</EPOCH><MEAN_MOTION>13.21827796</MEAN_MOTION><ECCENTRICITY>.0001432</ECCENTRICITY><INCLINATION>87.9266</INCLINATION><RA_OF_ASC_NODE>315.8989</RA_OF_ASC_NODE><ARG_OF_PERICENTER>93.1490</ARG_OF_PERICENTER><MEAN_ANOMALY>266.9808</MEAN_ANOMALY></meanElements><tleParameters><EPHEMERIS_TYPE>0</EPHEMERIS_TYPE><CLASSIFICATION_TYPE>U</CLASSIFICATION_TYPE><NORAD_CAT_ID>54673</NORAD_CAT_ID><ELEMENT_SET_NO>999</ELEMENT_SET_NO><REV_AT_EPOCH>12382</REV_AT_EPOCH><BSTAR>.27044E-3</BSTAR><MEAN_MOTION_DOT>.125E-5</MEAN_MOTION_DOT><MEAN_MOTION_DDOT>0</MEAN_MOTION_DDOT></tleParameters></data></segment></body></omm>
<omm id="CCSDS_OMM_VERS" version="2.0">
<header><CREATION_DATE/><ORIGINATOR/></header><body><segment><metadata><OBJECT_NAME>ONEWEB-0611</OBJECT_NAME><OBJECT_ID>2022-166AJ</OBJECT_ID><CENTER_NAME>EARTH</CENTER_NAME><REF_FRAME>TEME</REF_FRAME><TIME_SYSTEM>UTC</TIME_SYSTEM><MEAN_ELEMENT_THEORY>SGP4</MEAN_ELEMENT_THEORY></metadata><data><meanElements><EPOCH>2025-06-22T02:16:15.320928</EPOCH><MEAN_MOTION>13.21826637</MEAN_MOTION><ECCENTRICITY>.0002129</ECCENTRICITY><INCLINATION>87.9263</INCLINATION><RA_OF_ASC_NODE>315.8067</RA_OF_ASC_NODE><ARG_OF_PERICENTER>99.7432</ARG_OF_PERICENTER><MEAN_ANOMALY>260.3942</MEAN_ANOMALY></meanElements><tleParameters><EPHEMERIS_TYPE>0</EPHEMERIS_TYPE><CLASSIFICATION_TYPE>U</CLASSIFICATION_TYPE><NORAD_CAT_ID>54674</NORAD_CAT_ID><ELEMENT_SET_NO>999</ELEMENT_SET_NO><REV_AT_EPOCH>12434</REV_AT_EPOCH><BSTAR>-.10223E-3</BSTAR><MEAN_MOTION_DOT>-.29E-6</MEAN_MOTION_DOT><MEAN_MOTION_DDOT>0</MEAN_MOTION_DDOT></tleParameters></data></segment></body></omm>
<omm id="CCSDS_OMM_VERS" version="2.0">
<header><CREATION_DATE/><ORIGINATOR/></header><body><segment><metadata><OBJECT_NAME>ONEWEB-0612</OBJECT_NAME><OBJECT_ID>2022-166AK</OBJECT_ID><CENTER_NAME>EARTH</CENTER_NAME><REF_FRAME>TEME</REF_FRAME><TIME_SYSTEM>UTC</TIME_SYSTEM><MEAN_ELEMENT_THEORY>SGP4</MEAN_ELEMENT_THEORY></metadata><data><meanElements><EPOCH>2025-06-21T19:18:25.460640</EPOCH><MEAN_MOTION>13.21826519</MEAN_MOTION><ECCENTRICITY>.0001617</ECCENTRICITY><INCLINATION>87.9262</INCLINATION><RA_OF_ASC_NODE>315.8417</RA_OF_ASC_NODE><ARG_OF_PERICENTER>97.9710</ARG_OF_PERICENTER><MEAN_ANOMALY>262.1607</MEAN_ANOMALY></meanElements><tleParameters><EPHEMERIS_TYPE>0</EPHEMERIS_TYPE><CLASSIFICATION_TYPE>U</CLASSIFICATION_TYPE><NORAD_CAT_ID>54675</NORAD_CAT_ID><ELEMENT_SET_NO>999</ELEMENT_SET_NO><REV_AT_EPOCH>12382</REV_AT_EPOCH><BSTAR>-.1165E-3</BSTAR><MEAN_MOTION_DOT>-.35E-6</MEAN_MOTION_DOT><MEAN_MOTION_DDOT>0</MEAN_MOTION_DDOT></tleParameters></data></segment></body></omm>
<omm id="CCSDS_OMM_VERS" version="2.0">
<header><CREATION_DATE/><ORIGINATOR/></header><body><segment><metadata><OBJECT_NAME>ONEWEB-0615</OBJECT_NAME><OBJECT_ID>2022-166AL</OBJECT_ID><CENTER_NAME>EARTH</CENTER_NAME><REF_FRAME>TEME</REF_FRAME><TIME_SYSTEM>UTC</TIME_SYSTEM><MEAN_ELEMENT_THEORY>SGP4</MEAN_ELEMENT_THEORY></metadata><data><meanElements><EPOCH>2025-06-22T02:07:10.667424</EPOCH><MEAN_MOTION>13.21824361</MEAN_MOTION><ECCENTRICITY>.0001886</ECCENTRICITY><INCLINATION>87.9263</INCLINATION><RA_OF_ASC_NODE>315.8118</RA_OF_ASC_NODE><ARG_OF_PERICENTER>98.8886</ARG_OF_PERICENTER><MEAN_ANOMALY>261.2461</MEAN_ANOMALY></meanElements><tleParameters><EPHEMERIS_TYPE>0</EPHEMERIS_TYPE><CLASSIFICATION_TYPE>U</CLASSIFICATION_TYPE><NORAD_CAT_ID>54676</NORAD_CAT_ID><ELEMENT_SET_NO>999</ELEMENT_SET_NO><REV_AT_EPOCH>12434</REV_AT_EPOCH><BSTAR>-.44406E-4</BSTAR><MEAN_MOTION_DOT>-.5E-7</MEAN_MOTION_DOT><MEAN_MOTION_DDOT>0</MEAN_MOTION_DDOT></tleParameters></data></segment></body></omm>
<omm id="CCSDS_OMM_VERS" version="2.0">
<header><CREATION_DATE/><ORIGINATOR/></header><body><segment><metadata><OBJECT_NAME>ONEWEB-0655</OBJECT_NAME><OBJECT_ID>2022-166AM</OBJECT_ID><CENTER_NAME>EARTH</CENTER_NAME><REF_FRAME>TEME</REF_FRAME><TIME_SYSTEM>UTC</TIME_SYSTEM><MEAN_ELEMENT_THEORY>SGP4</MEAN_ELEMENT_THEORY></metadata><data><meanElements><EPOCH>2025-06-21T20:01:34.752000</EPOCH><MEAN_MOTION>13.21824143</MEAN_MOTION><ECCENTRICITY>.0001736</ECCENTRICITY><INCLINATION>87.9263</INCLINATION><RA_OF_ASC_NODE>315.8665</RA_OF_ASC_NODE><ARG_OF_PERICENTER>108.9947</ARG_OF_PERICENTER><MEAN_ANOMALY>251.1375</MEAN_ANOMALY></meanElements><tleParameters><EPHEMERIS_TYPE>0</EPHEMERIS_TYPE><CLASSIFICATION_TYPE>U</CLASSIFICATION_TYPE><NORAD_CAT_ID>54677</NORAD_CAT_ID><ELEMENT_SET_NO>999</ELEMENT_SET_NO><REV_AT_EPOCH>12383</REV_AT_EPOCH><BSTAR>-.14059E-3</BSTAR><MEAN_MOTION_DOT>-.45E-6</MEAN_MOTION_DOT><MEAN_MOTION_DDOT>0</MEAN_MOTION_DDOT></tleParameters></data></segment></body></omm>
<omm id="CCSDS_OMM_VERS" version="2.0">
<header><CREATION_DATE/><ORIGINATOR/></header><body><segment><metadata><OBJECT_NAME>ONEWEB-0659</OBJECT_NAME><OBJECT_ID>2022-166AN</OBJECT_ID><CENTER_NAME>EARTH</CENTER_NAME><REF_FRAME>TEME</REF_FRAME><TIME_SYSTEM>UTC</TIME_SYSTEM><MEAN_ELEMENT_THEORY>SGP4</MEAN_ELEMENT_THEORY></metadata><data><meanElements><EPOCH>2025-06-22T03:42:33.361920</EPOCH><MEAN_MOTION>13.21827086</MEAN_MOTION><ECCENTRICITY>.0001937</ECCENTRICITY><INCLINATION>87.9260</INCLINATION><RA_OF_ASC_NODE>315.8042</RA_OF_ASC_NODE><ARG_OF_PERICENTER>94.4982</ARG_OF_PERICENTER><MEAN_ANOMALY>265.6373</MEAN_ANOMALY></meanElements><tleParameters><EPHEMERIS_TYPE>0</EPHEMERIS_TYPE><CLASSIFICATION_TYPE>U</CLASSIFICATION_TYPE><NORAD_CAT_ID>54678</NORAD_CAT_ID><ELEMENT_SET_NO>999</ELEMENT_SET_NO><REV_AT_EPOCH>12443</REV_AT_EPOCH><BSTAR>.5137E-4</BSTAR><MEAN_MOTION_DOT>.34E-6</MEAN_MOTION_DOT><MEAN_MOTION_DDOT>0</MEAN_MOTION_DDOT></tleParameters></data></segment></body></omm>

</ndm>
